{
  "type": "FeatureCollection",
  "features": [
    {
      "type": "Feature",
      "properties": {
        "norad_id": 50032,
        "name": "COSMOS 1408 DEB",
        "group": "cosmos-1408-debris",
        "lat": -42.286850573183315,
        "lon": -112.4971213966382,
        "alt_km": 425.9442871834135,
        "timestamp": "2025-12-10T14:53:37.363256+00:00",
        "meta_object_name": "COSMOS 1408 DEB",
        "meta_object_id": "1982-092RU",
        "meta_epoch": "2025-12-10T06:09:51.234336",
        "meta_mean_motion": 15.45654436,
        "meta_eccentricity": 0.00150478,
        "meta_inclination": 82.5641,
        "meta_ra_of_asc_node": 61.0534,
        "meta_arg_of_pericenter": 218.1107,
        "meta_mean_anomaly": 141.9079,
        "meta_ephemeris_type": 0,
        "meta_classification_type": "U",
        "meta_norad_cat_id": 50032,
        "meta_element_set_no": 999,
        "meta_rev_at_epoch": 22565,
        "meta_bstar": 0.00016026618,
        "meta_mean_motion_dot": 7.796e-05,
        "meta_mean_motion_ddot": 0,
        "tle_line1": "1 50032U 82092RU  25344.25684299  .00007796  00000+0  16027-3 0  9991",
        "tle_line2": "2 50032  82.5641  61.0534 0015047 218.1107 141.9079 15.45654436225658"
      },
      "geometry": {
        "type": "Point",
        "coordinates": [
          -112.4971213966382,
          -42.286850573183315
        ]
      }
    },
    {
      "type": "Feature",
      "properties": {
        "norad_id": 50058,
        "name": "COSMOS 1408 DEB",
        "group": "cosmos-1408-debris",
        "lat": -73.52375125888167,
        "lon": 45.53845960524016,
        "alt_km": 394.8760583015801,
        "timestamp": "2025-12-10T14:53:37.363274+00:00",
        "meta_object_name": "COSMOS 1408 DEB",
        "meta_object_id": "1982-092SW",
        "meta_epoch": "2025-12-10T07:32:15.069120",
        "meta_mean_motion": 15.63871955,
        "meta_eccentricity": 0.00164904,
        "meta_inclination": 82.6126,
        "meta_ra_of_asc_node": 71.8794,
        "meta_arg_of_pericenter": 107.0459,
        "meta_mean_anomaly": 253.2608,
        "meta_ephemeris_type": 0,
        "meta_classification_type": "U",
        "meta_norad_cat_id": 50058,
        "meta_element_set_no": 999,
        "meta_rev_at_epoch": 22766,
        "meta_bstar": 0.00047417858,
        "meta_mean_motion_dot": 0.00044963,
        "meta_mean_motion_ddot": 0,
        "tle_line1": "1 50058U 82092SW  25344.31406330  .00044963  00000+0  47418-3 0  9999",
        "tle_line2": "2 50058  82.6126  71.8794 0016490 107.0459 253.2608 15.63871955227666"
      },
      "geometry": {
        "type": "Point",
        "coordinates": [
          45.53845960524016,
          -73.52375125888167
        ]
      }
    },
    {
      "type": "Feature",
      "properties": {
        "norad_id": 50404,
        "name": "COSMOS 1408 DEB",
        "group": "cosmos-1408-debris",
        "lat": 57.20531779077862,
        "lon": -130.5195215942898,
        "alt_km": 621.5089625102519,
        "timestamp": "2025-12-10T14:53:37.363285+00:00",
        "meta_object_name": "COSMOS 1408 DEB",
        "meta_object_id": "1982-092ADS",
        "meta_epoch": "2025-12-10T01:55:59.645280",
        "meta_mean_motion": 15.13181066,
        "meta_eccentricity": 0.01731067,
        "meta_inclination": 82.2033,
        "meta_ra_of_asc_node": 217.7549,
        "meta_arg_of_pericenter": 208.0507,
        "meta_mean_anomaly": 151.1318,
        "meta_ephemeris_type": 0,
        "meta_classification_type": "U",
        "meta_norad_cat_id": 50404,
        "meta_element_set_no": 999,
        "meta_rev_at_epoch": 21153,
        "meta_bstar": 0.0036852181,
        "meta_mean_motion_dot": 0.00095791,
        "meta_mean_motion_ddot": 0,
        "tle_line1": "1 50404U 82092ADS 25344.08055145  .00095791  00000+0  36852-2 0  9996",
        "tle_line2": "2 50404  82.2033 217.7549 0173106 208.0507 151.1318 15.13181066211532"
      },
      "geometry": {
        "type": "Point",
        "coordinates": [
          -130.5195215942898,
          57.20531779077862
        ]
      }
    },
    {
      "type": "Feature",
      "properties": {
        "norad_id": 50621,
        "name": "COSMOS 1408 DEB",
        "group": "cosmos-1408-debris",
        "lat": -2.531601652562265,
        "lon": 76.05597499321358,
        "alt_km": 419.9303164405792,
        "timestamp": "2025-12-10T14:53:37.363295+00:00",
        "meta_object_name": "COSMOS 1408 DEB",
        "meta_object_id": "1982-092ALR",
        "meta_epoch": "2025-12-10T05:38:48.718176",
        "meta_mean_motion": 15.56453905,
        "meta_eccentricity": 0.0028809,
        "meta_inclination": 82.5696,
        "meta_ra_of_asc_node": 76.7876,
        "meta_arg_of_pericenter": 161.6015,
        "meta_mean_anomaly": 198.6289,
        "meta_ephemeris_type": 0,
        "meta_classification_type": "U",
        "meta_norad_cat_id": 50621,
        "meta_element_set_no": 999,
        "meta_rev_at_epoch": 22211,
        "meta_bstar": 0.00053172941,
        "meta_mean_motion_dot": 0.00038461,
        "meta_mean_motion_ddot": 0,
        "tle_line1": "1 50621U 82092ALR 25344.23528609  .00038461  00000+0  53173-3 0  9991",
        "tle_line2": "2 50621  82.5696  76.7876 0028809 161.6015 198.6289 15.56453905222114"
      },
      "geometry": {
        "type": "Point",
        "coordinates": [
          76.05597499321358,
          -2.531601652562265
        ]
      }
    }
  ]
}